[{"OBJECT_NAME":"STARLINK-1800","OBJECT_ID":"2020-073AG","EPOCH":"2026-03-10T00:00:02.999808","MEAN_MOTION":15.79776144,"ECCENTRICITY":0.00048232,"INCLINATION":53.0392,"RA_OF_ASC_NODE":207.8023,"ARG_OF_PERICENTER":307.6463,"MEAN_ANOMALY":354.6539,"EPHEMERIS_TYPE":0,"CLASSIFICATION_TYPE":"U","NORAD_CAT_ID":46700,"ELEMENT_SET_NO":999,"REV_AT_EPOCH":598,"BSTAR":0.001050296,"MEAN_MOTION_DOT":0.00201242,"MEAN_MOTION_DDOT":0},{"OBJECT_NAME":"STARLINK-36808","OBJECT_ID":"2026-035C","EPOCH":"2026-03-09T22:00:01.999584","MEAN_MOTION":15.87173242,"ECCENTRICITY":0.00011045,"INCLINATION":97.2736,"RA_OF_ASC_NODE":1.2571,"ARG_OF_PERICENTER":89.052,"MEAN_ANOMALY":314.4302,"EPHEMERIS_TYPE":0,"CLASSIFICATION_TYPE":"U","NORAD_CAT_ID":67881,"ELEMENT_SET_NO":999,"REV_AT_EPOCH":379,"BSTAR":-0.0051505443,"MEAN_MOTION_DOT":-0.01168249,"MEAN_MOTION_DDOT":0}]
